NORAD_CAT_ID,OBJECT_NAME,OBJECT_TYPE,EPOCH,MEAN_MOTION,ECCENTRICITY,INCLINATION,RA_OF_ASC_NODE,ARG_OF_PERICENTER,MEAN_ANOMALY,BSTAR,MEAN_MOTION_DOT,MEAN_MOTION_DDOT,TLE_LINE0,TLE_LINE1,TLE_LINE2,SEMIMAJOR_AXIS,PERIOD,APOGEE,PERIGEE,DECAYED
53288.0,STARLINK-4162,PAYLOAD,2024-02-07 07:11:00,15.08862738,0.0001672,53.2203,2.1298,86.9879,273.1305,0.00012231,1.66e-05,0.0,0 STARLINK-4162,1 53288U 22086AY  24038.29931124  .00001660  00000-0  12231-3 0  9997,2 53288  53.2203   2.1298 0001672  86.9879 273.1305 15.08862738 86247,6917.811,95.436,540.833,538.519,0.0
53288.0,STARLINK-4162,PAYLOAD,2024-02-07 15:07:57,15.08843377,0.0001359,53.2203,0.6448,102.3283,257.7862,-1.2033e-05,-4.79e-06,0.0,0 STARLINK-4162,1 53288U 22086AY  24038.63052446 -.00000479  00000-0 -12033-4 0  9996,2 53288  53.2203   0.6448 0001359 102.3283 257.7862 15.08843377 86133,6917.87,95.437,540.675,538.795,0.0
53288.0,STARLINK-4162,PAYLOAD,2024-02-07 21:29:30,15.08839554,0.0001684,53.2182,359.4617,78.6071,281.511,4.3658e-05,4.07e-06,0.0,0 STARLINK-4162,1 53288U 22086AY  24038.89549144  .00000407  00000-0  43658-4 0  9996,2 53288  53.2182 359.4617 0001684  78.6071 281.5110 15.08839554 86338,6917.882,95.438,540.912,538.582,0.0
53288.0,STARLINK-4162,PAYLOAD,2024-02-08 02:15:39,15.08839341,0.0001361,53.2169,358.5658,89.5364,270.5784,2.2093e-05,6.4e-07,0.0,0 STARLINK-4162,1 53288U 22086AY  24039.09420967  .00000064  00000-0  22093-4 0  9999,2 53288  53.2169 358.5658 0001361  89.5364 270.5784 15.08839341 86201,6917.882,95.438,540.689,538.806,0.0
53288.0,STARLINK-4162,PAYLOAD,2024-02-09 03:41:49,15.08853515,0.0001531,53.2175,353.8064,104.2774,255.8388,3.3389e-05,2.44e-06,0.0,0 STARLINK-4162,1 53288U 22086AY  24040.15404092  .00000244  00000-0  33389-4 0  9999,2 53288  53.2175 353.8064 0001531 104.2774 255.8388 15.08853515 86368,6917.839,95.437,540.763,538.645,0.0
53288.0,STARLINK-4162,PAYLOAD,2024-02-10 03:32:37,15.08836082,0.0001378,53.2184,349.3461,100.8429,259.2718,3.9195e-05,3.36e-06,0.0,0 STARLINK-4162,1 53288U 22086AY  24041.14765249  .00000336  00000-0  39195-4 0  9996,2 53288  53.2184 349.3461 0001378 100.8429 259.2718 15.08836082 86519,6917.892,95.438,540.711,538.804,0.0
53288.0,STARLINK-4162,PAYLOAD,2024-02-10 21:01:51,15.08842745,0.0001592,53.2188,346.0764,116.4081,243.7075,0.00011079,1.476e-05,0.0,0 STARLINK-4162,1 53288U 22086AY  24041.87629156  .00001476  00000-0  11079-3 0  9998,2 53288  53.2188 346.0764 0001592 116.4081 243.7075 15.08842745 86784,6917.872,95.437,540.838,538.636,0.0
53288.0,STARLINK-4162,PAYLOAD,2024-02-11 01:48:00,15.08848382,0.0001355,53.2187,345.1851,102.9878,257.1265,0.00013097,1.798e-05,0.0,0 STARLINK-4162,1 53288U 22086AY  24042.07500932  .00001798  00000-0  13097-3 0  9990,2 53288  53.2187 345.1851 0001355 102.9878 257.1265 15.08848382 86650,6917.855,95.437,540.657,538.782,0.0
53288.0,STARLINK-4162,PAYLOAD,2024-02-12 03:14:10,15.08856376,0.0001207,53.2182,340.4295,92.0401,268.0729,0.00038404,5.832e-05,0.0,0 STARLINK-4162,1 53288U 22086AY  24043.13484557  .00005832  00000-0  38404-3 0  9994,2 53288  53.2182 340.4295 0001207  92.0401 268.0729 15.08856376 86818,6917.83,95.437,540.53,538.86,0.0
53288.0,STARLINK-4162,PAYLOAD,2024-02-12 04:49:33,15.08863748,0.0001382,53.219,340.1292,100.0441,260.0707,0.00054192,8.353e-05,0.0,0 STARLINK-4162,1 53288U 22086AY  24043.20108142  .00008353  00000-0  54192-3 0  9998,2 53288  53.2190 340.1292 0001382 100.0441 260.0707 15.08863748 86986,6917.808,95.436,540.629,538.717,0.0
53288.0,STARLINK-4162,PAYLOAD,2024-02-13 03:04:58,15.08840242,0.0001527,53.218,335.9702,79.033,281.0834,8.4301e-05,1.054e-05,0.0,0 STARLINK-4162,1 53288U 22086AY  24044.12845307  .00001054  00000-0  84301-4 0  9998,2 53288  53.2180 335.9702 0001527  79.0330 281.0834 15.08840242 86962,6917.88,95.438,540.801,538.688,0.0
53288.0,STARLINK-4162,PAYLOAD,2024-02-13 12:37:17,15.08832403,0.000138,53.2176,334.1791,98.1326,261.9823,0.00010964,1.457e-05,0.0,0 STARLINK-4162,1 53288U 22086AY  24044.52589427  .00001457  00000-0  10964-3 0  9990,2 53288  53.2176 334.1791 0001380  98.1326 261.9823 15.08832403 87180,6917.904,95.438,540.723,538.814,0.0
53288.0,STARLINK-4162,PAYLOAD,2024-02-14 04:31:08,15.08850137,0.0001708,53.2187,331.2051,97.4431,262.6755,0.0010381,0.00016277,0.0,0 STARLINK-4162,1 53288U 22086AY  24045.18829357  .00016277  00000-0  10381-2 0  9990,2 53288  53.2187 331.2051 0001708  97.4431 262.6755 15.08850137 87122,6917.849,95.437,540.896,538.533,0.0
53288.0,STARLINK-4162,PAYLOAD,2024-02-14 12:28:04,15.08844509,0.0001011,53.218,329.7222,122.2638,237.8452,0.00049668,7.627e-05,0.0,0 STARLINK-4162,1 53288U 22086AY  24045.51949333  .00007627  00000-0  49668-3 0  9994,2 53288  53.2180 329.7222 0001011 122.2638 237.8452 15.08844509 87337,6917.867,95.437,540.431,539.032,0.0
53288.0,STARLINK-4162,PAYLOAD,2024-02-14 18:49:36,15.08847245,0.0001767,53.2171,328.5335,97.4621,262.6572,0.00043363,6.621e-05,0.0,0 STARLINK-4162,1 53288U 22086AY  24045.78445601  .00006621  00000-0  43363-3 0  9991,2 53288  53.2171 328.5335 0001767  97.4621 262.6572 15.08847245 87218,6917.858,95.437,540.946,538.501,0.0
53288.0,STARLINK-4162,PAYLOAD,2024-02-15 04:21:55,15.08858832,0.0001733,53.2178,326.748,107.155,252.9632,0.00065997,0.00010236,0.0,0 STARLINK-4162,1 53288U 22086AY  24046.18189092  .00010236  00000-0  65997-3 0  9999,2 53288  53.2178 326.7480 0001733 107.1550 252.9632 15.08858832 87436,6917.823,95.436,540.887,538.489,0.0
53288.0,STARLINK-4162,PAYLOAD,2024-02-15 21:51:10,15.08839395,0.0001442,53.2195,323.4763,105.5318,254.5834,0.00032358,4.865e-05,0.0,0 STARLINK-4162,1 53288U 22086AY  24046.91053691  .00004865  00000-0  32358-3 0  9991,2 53288  53.2195 323.4763 0001442 105.5318 254.5834 15.08839395 87541,6917.882,95.438,540.745,538.75,0.0
53288.0,STARLINK-4162,PAYLOAD,2024-02-16 04:12:42,15.08850365,0.000132,53.2172,322.2881,86.9286,273.1857,0.0008873,0.00013866,0.0,0 STARLINK-4162,1 53288U 22086AY  24047.17549708  .00013866  00000-0  88730-3 0  9995,2 53288  53.2172 322.2881 0001320  86.9286 273.1857 15.08850365 87424,6917.849,95.437,540.627,538.801,0.0
53288.0,STARLINK-4162,PAYLOAD,2024-02-16 18:31:11,15.0883934,9.68e-05,53.2173,319.612,94.0581,266.0522,0.0011158,0.00017514,0.0,0 STARLINK-4162,1 53288U 22086AY  24047.77166001  .00017514  00000-0  11158-2 0  9995,2 53288  53.2173 319.6120 0000968  94.0581 266.0522 15.08839340 87516,6917.882,95.438,540.417,539.078,0.0
53288.0,STARLINK-4162,PAYLOAD,2024-02-16 21:41:57,15.08844894,0.0001153,53.2175,319.0184,101.9842,258.1279,0.00079037,0.00012315,0.0,0 STARLINK-4162,1 53288U 22086AY  24047.90414064  .00012315  00000-0  79037-3 0  9990,2 53288  53.2175 319.0184 0001153 101.9842 258.1279 15.08844894 87697,6917.865,95.437,540.528,538.933,0.0
53288.0,STARLINK-4162,PAYLOAD,2024-02-17 10:25:02,15.0884868,0.0001269,53.2161,316.6351,75.2571,284.8562,0.00065646,0.00010178,0.0,0 STARLINK-4162,1 53288U 22086AY  24048.43405674  .00010178  00000-0  65646-3 0  9992,2 53288  53.2161 316.6351 0001269  75.2571 284.8562 15.08848680 87778,6917.854,95.437,540.597,538.841,0.0
53288.0,STARLINK-4162,PAYLOAD,2024-02-17 18:21:58,15.08840938,0.0001773,53.2171,315.1531,99.3247,260.7945,0.00018774,2.701e-05,0.0,0 STARLINK-4162,1 53288U 22086AY  24048.76526050  .00002701  00000-0  18774-3 0  9993,2 53288  53.2171 315.1531 0001773  99.3247 260.7945 15.08840938 87664,6917.878,95.437,540.969,538.516,0.0
53288.0,STARLINK-4162,PAYLOAD,2024-02-17 21:32:44,15.08840419,0.0001563,53.2179,314.5593,101.983,258.1338,0.00021043,3.063e-05,0.0,0 STARLINK-4162,1 53288U 22086AY  24048.89774076  .00003063  00000-0  21043-3 0  9995,2 53288  53.2179 314.5593 0001563 101.9830 258.1338 15.08840419 87849,6917.879,95.438,540.825,538.663,0.0
53288.0,STARLINK-4162,PAYLOAD,2024-02-18 10:15:49,15.08843644,0.0001229,53.2165,312.1764,90.8621,269.2512,0.00045979,7.038e-05,0.0,0 STARLINK-4162,1 53288U 22086AY  24049.42766059  .00007038  00000-0  45979-3 0  9997,2 53288  53.2165 312.1764 0001229  90.8621 269.2512 15.08843644 87920,6917.869,95.437,540.584,538.884,0.0
53288.0,STARLINK-4162,PAYLOAD,2024-02-18 22:58:54,15.08843949,0.0001477,53.2158,309.7974,83.8626,276.2534,0.0001844,2.648e-05,0.0,0 STARLINK-4162,1 53288U 22086AY  24049.95758033  .00002648  00000-0  18440-3 0  9993,2 53288  53.2158 309.7974 0001477  83.8626 276.2534 15.08843949 88009,6917.868,95.437,540.755,538.712,0.0
53288.0,STARLINK-4162,PAYLOAD,2024-02-19 02:09:40,15.08856431,0.0001521,53.2172,309.2058,103.0612,257.055,0.00048107,7.38e-05,0.0,0 STARLINK-4162,1 53288U 22086AY  24050.09005625  .00007380  00000-0  48107-3 0  9993,2 53288  53.2172 309.2058 0001521 103.0612 257.0550 15.08856431 87861,6917.83,95.437,540.747,538.643,0.0
53288.0,STARLINK-4162,PAYLOAD,2024-02-19 10:06:36,15.08848901,7.85e-05,53.2168,307.7155,69.9762,290.1314,0.00027359,4.07e-05,0.0,0 STARLINK-4162,1 53288U 22086AY  24050.42125525  .00004070  00000-0  27359-3 0  9991,2 53288  53.2168 307.7155 0000785  69.9762 290.1314 15.08848901 87919,6917.853,95.437,540.261,539.175,0.0
53288.0,STARLINK-4162,PAYLOAD,2024-02-19 22:49:42,15.08830187,0.0001965,53.2185,305.3428,86.9713,273.1504,-0.000165,-2.913e-05,0.0,0 STARLINK-4162,1 53288U 22086AY  24050.95118643 -.00002913  00000-0 -16500-3 0  9994,2 53288  53.2185 305.3428 0001965  86.9713 273.1504 15.08830187 88157,6917.91,95.438,541.135,538.416,0.0
53288.0,STARLINK-4162,PAYLOAD,2024-02-20 02:00:29,15.08831535,0.0001952,53.2176,304.7459,82.3915,277.7299,-4.952e-05,-1.076e-05,0.0,0 STARLINK-4162,1 53288U 22086AY  24051.08366902 -.00001076  00000-0 -49520-4 0  9990,2 53288  53.2176 304.7459 0001952  82.3915 277.7299 15.08831535 88018,6917.906,95.438,541.122,538.421,0.0
53288.0,STARLINK-4162,PAYLOAD,2024-02-20 09:57:24,15.08837022,0.000168,53.2183,303.2596,84.363,275.7554,3.0203e-05,1.93e-06,0.0,0 STARLINK-4162,1 53288U 22086AY  24051.41486602  .00000193  00000-0  30203-4 0  9992,2 53288  53.2183 303.2596 0001680  84.3630 275.7554 15.08837022 88228,6917.889,95.438,540.917,538.592,0.0
